NORAD_CAT_ID,OBJECT_NAME,OBJECT_TYPE,EPOCH,MEAN_MOTION,ECCENTRICITY,INCLINATION,RA_OF_ASC_NODE,ARG_OF_PERICENTER,MEAN_ANOMALY,BSTAR,MEAN_MOTION_DOT,MEAN_MOTION_DDOT,TLE_LINE0,TLE_LINE1,TLE_LINE2,SEMIMAJOR_AXIS,PERIOD,APOGEE,PERIGEE,DECAYED
55957.0,STARLINK-5884,PAYLOAD,2024-05-28 20:40:45,14.98328727,0.0002822,69.9992,102.9686,264.4645,95.6192,-2.8038e-05,-4.27e-06,0.0,0 STARLINK-5884,1 55957U 23037AV  24149.86163565 -.00000427  00000-0 -28038-4 0  9996,2 55957  69.9992 102.9686 0002822 264.4645  95.6192 14.98328727 67471,6950.197,96.107,574.023,570.1,0.0
55957.0,STARLINK-5884,PAYLOAD,2024-05-28 22:16:53,14.98328096,0.0002819,69.9992,102.8003,265.1578,94.9259,-3.3992e-05,-4.99e-06,0.0,0 STARLINK-5884,1 55957U 23037AV  24149.92839636 -.00000499  00000-0 -33992-4 0  9996,2 55957  69.9992 102.8003 0002819 265.1578  94.9259 14.98328096 67141,6950.199,96.107,574.023,570.105,0.0
55957.0,STARLINK-5884,PAYLOAD,2024-05-29 06:17:33,14.98328715,0.0002867,69.9992,101.9586,267.4008,92.6823,-2.7481e-05,-4.21e-06,0.0,0 STARLINK-5884,1 55957U 23037AV  24150.26219606 -.00000421  00000-0 -27481-4 0  9995,2 55957  69.9992 101.9586 0002867 267.4008  92.6823 14.98328715 67198,6950.197,96.107,574.054,570.069,0.0
55957.0,STARLINK-5884,PAYLOAD,2024-05-29 22:18:54,14.98329875,0.0002913,69.9991,100.2751,267.432,92.6506,-2.0736e-05,-3.4e-06,0.0,0 STARLINK-5884,1 55957U 23037AV  24150.92979512 -.00000340  00000-0 -20736-4 0  9993,2 55957  69.9991 100.2751 0002913 267.4320  92.6506 14.98329875 67299,6950.193,96.107,574.083,570.034,0.0
55957.0,STARLINK-5884,PAYLOAD,2024-05-30 04:43:26,14.98334098,0.0002842,69.9992,99.6018,266.6911,93.3923,3.3006e-05,3.01e-06,0.0,0 STARLINK-5884,1 55957U 23037AV  24151.19683056  .00000301  00000-0  33006-4 0  9997,2 55957  69.9992  99.6018 0002842 266.6911  93.3923 14.98334098 67671,6950.18,96.107,574.02,570.07,0.0
55957.0,STARLINK-5884,PAYLOAD,2024-05-30 06:19:34,14.98334594,0.0002862,69.9993,99.4335,267.6139,92.4692,3.6858e-05,3.47e-06,0.0,0 STARLINK-5884,1 55957U 23037AV  24151.26358999  .00000347  00000-0  36858-4 0  9998,2 55957  69.9993  99.4335 0002862 267.6139  92.4692 14.98334594 67345,6950.179,96.107,574.033,570.055,0.0
55957.0,STARLINK-5884,PAYLOAD,2024-05-30 22:20:55,14.98328079,0.0002829,69.9995,97.7507,268.4734,91.6101,1.5456e-05,9.1e-07,0.0,0 STARLINK-5884,1 55957U 23037AV  24151.93119418  .00000091  00000-0  15456-4 0  9990,2 55957  69.9995  97.7507 0002829 268.4734  91.6101 14.98328079 67440,6950.199,96.107,574.03,570.098,0.0
55957.0,STARLINK-5884,PAYLOAD,2024-05-31 04:45:27,14.98329492,0.0002806,69.9995,97.0773,268.0967,91.9871,3.1686e-05,2.85e-06,0.0,0 STARLINK-5884,1 55957U 23037AV  24152.19823292  .00000285  00000-0  31686-4 0  9999,2 55957  69.9995  97.0773 0002806 268.0967  91.9871 14.98329492 67826,6950.194,96.107,574.01,570.109,0.0
55957.0,STARLINK-5884,PAYLOAD,2024-05-31 06:21:35,14.9833027,0.0002803,69.9996,96.9091,268.1,91.9838,3.9288e-05,3.76e-06,0.0,0 STARLINK-5884,1 55957U 23037AV  24152.26499220  .00000376  00000-0  39288-4 0  9994,2 55957  69.9996  96.9091 0002803 268.1000  91.9838 14.98330270 67496,6950.192,96.107,574.005,570.109,0.0
55957.0,STARLINK-5884,PAYLOAD,2024-05-31 22:22:55,14.9833689,0.0002747,69.9994,95.2251,271.8432,88.2412,-0.00011293,-1.44e-05,0.0,0 STARLINK-5884,1 55957U 23037AV  24152.93259174 -.00001440  00000-0 -11293-3 0  9990,2 55957  69.9994  95.2251 0002747 271.8432  88.2412 14.98336890 67593,6950.172,96.107,573.946,570.127,0.0
55957.0,STARLINK-5884,PAYLOAD,2024-06-01 04:47:28,14.98332382,0.0002796,69.9996,94.5528,262.9053,97.1788,-9.4328e-06,-2.06e-06,0.0,0 STARLINK-5884,1 55957U 23037AV  24153.19963096 -.00000206  00000-0 -94328-5 0  9995,2 55957  69.9996  94.5528 0002796 262.9053  97.1788 14.98332382 67977,6950.186,96.107,573.994,570.107,0.0
55957.0,STARLINK-5884,PAYLOAD,2024-06-01 12:48:08,14.98347439,0.0002839,69.9997,93.7109,270.93,89.1534,-0.00033385,-4.076e-05,0.0,0 STARLINK-5884,1 55957U 23037AV  24153.53342823 -.00004076  00000-0 -33385-3 0  9995,2 55957  69.9997  93.7109 0002839 270.9300  89.1534 14.98347439 67683,6950.139,96.106,573.977,570.031,0.0
55957.0,STARLINK-5884,PAYLOAD,2024-06-02 04:49:29,14.98330447,0.0002788,69.9998,92.028,269.6002,90.4838,8.4933e-08,-9.2e-07,0.0,0 STARLINK-5884,1 55957U 23037AV  24154.20103153 -.00000092  00000-0  84933-7 0  9993,2 55957  69.9998  92.0280 0002788 269.6002  90.4838 14.98330447 68126,6950.192,96.107,573.994,570.119,0.0
55957.0,STARLINK-5884,PAYLOAD,2024-06-02 12:50:09,14.98364889,0.0002479,70.0017,91.1847,279.8097,80.2782,-0.0007874,-9.484e-05,0.0,0 STARLINK-5884,1 55957U 23037AV  24154.53482808 -.00009484  00000-0 -78740-3 0  9996,2 55957  70.0017  91.1847 0002479 279.8097  80.2782 14.98364889 68171,6950.085,96.105,573.673,570.227,0.0
55957.0,STARLINK-5884,PAYLOAD,2024-06-03 04:51:30,14.98324884,0.0002775,70.0002,89.5022,266.5994,93.4848,-1.3623e-05,-2.55e-06,0.0,0 STARLINK-5884,1 55957U 23037AV  24155.20243649 -.00000255  00000-0 -13623-4 0  9996,2 55957  70.0002  89.5022 0002775 266.5994  93.4848 14.98324884 68270,6950.209,96.107,574.002,570.145,0.0
55957.0,STARLINK-5884,PAYLOAD,2024-06-03 12:52:10,14.98333454,0.0003057,69.9996,88.6598,271.7583,88.3226,-5.6946e-05,-7.72e-06,0.0,0 STARLINK-5884,1 55957U 23037AV  24155.53623188 -.00000772  00000-0 -56946-4 0  9991,2 55957  69.9996  88.6598 0003057 271.7583  88.3226 14.98333454 67986,6950.182,96.107,574.172,569.923,0.0
55957.0,STARLINK-5884,PAYLOAD,2024-06-03 19:16:42,14.98330091,0.0002961,69.9998,87.9876,270.1725,89.9095,3.6187e-05,3.39e-06,0.0,0 STARLINK-5884,1 55957U 23037AV  24155.80327206  .00000339  00000-0  36187-4 0  9995,2 55957  69.9998  87.9876 0002961 270.1725  89.9095 14.98330091 68024,6950.193,96.107,574.116,570.0,0.0
55957.0,STARLINK-5884,PAYLOAD,2024-06-04 04:53:30,14.98337145,0.0002958,69.9996,86.9782,267.8532,92.2289,7.4626e-05,7.98e-06,0.0,0 STARLINK-5884,1 55957U 23037AV  24156.20382560  .00000798  00000-0  74626-4 0  9993,2 55957  69.9996  86.9782 0002958 267.8532  92.2289 14.98337145 68425,6950.171,96.107,574.092,569.98,0.0
55957.0,STARLINK-5884,PAYLOAD,2024-06-04 12:54:11,14.98332551,0.000243,70.002,86.1344,274.3045,85.7837,7.8997e-05,8.5e-06,0.0,0 STARLINK-5884,1 55957U 23037AV  24156.53762920  .00000850  00000-0  78997-4 0  9995,2 55957  70.0020  86.1344 0002430 274.3045  85.7837 14.98332551 68139,6950.185,96.107,573.739,570.361,0.0
55957.0,STARLINK-5884,PAYLOAD,2024-06-05 12:56:12,14.98329024,0.0002924,70.0005,83.6096,271.0595,89.0229,-3.2246e-05,-4.78e-06,0.0,0 STARLINK-5884,1 55957U 23037AV  24157.53903193 -.00000478  00000-0 -32246-4 0  9990,2 55957  70.0005  83.6096 0002924 271.0595  89.0229 14.98329024 68627,6950.196,96.107,574.093,570.029,0.0
55957.0,STARLINK-5884,PAYLOAD,2024-06-06 04:57:32,14.98332217,0.0002736,70.001,81.927,268.8805,91.204,-5.755e-05,-7.8e-06,0.0,0 STARLINK-5884,1 55957U 23037AV  24158.20663105 -.00000780  00000-0 -57550-4 0  9992,2 55957  70.0010  81.9270 0002736 268.8805  91.2040 14.98332217 68384,6950.186,96.107,573.953,570.149,0.0
55957.0,STARLINK-5884,PAYLOAD,2024-06-07 17:48:38,14.98331464,0.0002725,70.0014,78.0561,272.1294,87.9553,7.3197e-05,7.81e-06,0.0,0 STARLINK-5884,1 55957U 23037AV  24159.74211056  .00000781  00000-0  73197-4 0  9990,2 55957  70.0014  78.0561 0002725 272.1294  87.9553 14.98331464 68953,6950.188,96.107,573.947,570.159,0.0
55957.0,STARLINK-5884,PAYLOAD,2024-06-07 22:37:02,14.98330008,0.0002987,69.9991,77.5511,273.3389,86.7428,7.9651e-05,8.57e-06,0.0,0 STARLINK-5884,1 55957U 23037AV  24159.94239059  .00000857  00000-0  79651-4 0  9990,2 55957  69.9991  77.5511 0002987 273.3389  86.7428 14.98330008 68648,6950.193,96.107,574.134,569.982,0.0
55957.0,STARLINK-5884,PAYLOAD,2024-06-08 05:01:33,14.98371413,0.0002433,70.002,76.8751,282.5488,77.5398,-0.00029549,-3.621e-05,0.0,0 STARLINK-5884,1 55957U 23037AV  24160.20941693 -.00003621  00000-0 -29549-3 0  9999,2 55957  70.0020  76.8751 0002433 282.5488  77.5398 14.98371413 69022,6950.065,96.104,573.621,570.239,0.0
55957.0,STARLINK-5884,PAYLOAD,2024-06-08 22:39:04,14.98324715,0.0002656,70.0009,75.024,282.5641,77.5221,-8.4832e-05,-1.105e-05,0.0,0 STARLINK-5884,1 55957U 23037AV  24160.94379955 -.00001105  00000-0 -84832-4 0  9998,2 55957  70.0009  75.0240 0002656 282.5641  77.5221 14.98324715 68792,6950.209,96.107,573.92,570.228,0.0
55957.0,STARLINK-5884,PAYLOAD,2024-06-09 03:27:28,14.98325244,0.0002827,70.001,74.521,267.5814,92.5021,-6.6373e-05,-8.85e-06,0.0,0 STARLINK-5884,1 55957U 23037AV  24161.14407720 -.00000885  00000-0 -66373-4 0  9997,2 55957  70.0010  74.5210 0002827 267.5814  92.5021 14.98325244 69165,6950.208,96.107,574.037,570.108,0.0
55957.0,STARLINK-5884,PAYLOAD,2024-06-09 22:41:04,14.9833186,0.0002622,70.0008,72.5016,268.4088,91.6771,-0.0001056,-1.353e-05,0.0,0 STARLINK-5884,1 55957U 23037AV  24161.94519524 -.00001353  00000-0 -10560-3 0  9998,2 55957  70.0008  72.5016 0002622 268.4088  91.6771 14.98331860 68948,6950.187,96.107,573.874,570.23,0.0
55957.0,STARLINK-5884,PAYLOAD,2024-06-10 03:29:28,14.98336278,0.0002775,70.0005,71.9963,266.9316,93.1526,-8.0458e-05,-1.053e-05,0.0,0 STARLINK-5884,1 55957U 23037AV  24162.14547095 -.00001053  00000-0 -80458-4 0  9996,2 55957  70.0005  71.9963 0002775 266.9316  93.1526 14.98336278 69310,6950.173,96.107,573.967,570.11,0.0
55957.0,STARLINK-5884,PAYLOAD,2024-06-10 11:30:08,14.9833817,0.0002964,70.0003,71.1534,271.8767,88.2052,-0.00012703,-1.609e-05,0.0,0 STARLINK-5884,1 55957U 23037AV  24162.47926851 -.00001609  00000-0 -12703-3 0  9997,2 55957  70.0003  71.1534 0002964 271.8767  88.2052 14.98338170 69029,6950.168,96.106,574.093,569.973,0.0
55957.0,STARLINK-5884,PAYLOAD,2024-06-10 22:43:05,14.98327729,0.0002974,70.0003,69.976,268.2931,91.7887,3.5874e-05,3.35e-06,0.0,0 STARLINK-5884,1 55957U 23037AV  24162.94659291  .00000335  00000-0  35874-4 0  9998,2 55957  70.0003  69.9760 0002974 268.2931  91.7887 14.98327729 69099,6950.2,96.107,574.132,569.998,0.0
